[{"OBJECT_NAME":"STARLINK-3110","OBJECT_ID":"2021-104N","EPOCH":"2026-03-09T16:49:16.649760","MEAN_MOTION":15.08842531,"ECCENTRICITY":0.00010989,"INCLINATION":53.2171,"RA_OF_ASC_NODE":229.0712,"ARG_OF_PERICENTER":94.2526,"MEAN_ANOMALY":265.8592,"EPHEMERIS_TYPE":0,"CLASSIFICATION_TYPE":"U","NORAD_CAT_ID":49420,"ELEMENT_SET_NO":999,"REV_AT_EPOCH":23862,"BSTAR":1.6960553e-5,"MEAN_MOTION_DOT":-1.8e-7,"MEAN_MOTION_DDOT":0},{"OBJECT_NAME":"PACE","OBJECT_ID":"2014-033N","EPOCH":"2026-03-09T22:47:44.809152","MEAN_MOTION":15.09745465,"ECCENTRICITY":0.00061206,"INCLINATION":98.125,"RA_OF_ASC_NODE":67.7953,"ARG_OF_PERICENTER":179.3374,"MEAN_ANOMALY":180.7863,"EPHEMERIS_TYPE":0,"CLASSIFICATION_TYPE":"U","NORAD_CAT_ID":40022,"ELEMENT_SET_NO":999,"REV_AT_EPOCH":63805,"BSTAR":0.00051174262,"MEAN_MOTION_DOT":8.193e-5,"MEAN_MOTION_DDOT":0}]
